STARLINK-5574           
1 55362U 23013AH  26201.21568653 -.00000064  00000+0  71975-5 0  9991
2 55362  43.0037 260.0825 0001761 316.2431  43.8281 15.27578687192114
STARLINK-5627           
1 55364U 23013AK  26200.50828616  .00000619  00000+0  32036-4 0  9991
2 55364  43.0009 282.3527 0001248 253.5373 106.5342 15.27572455191794
STARLINK-5639           
1 55365U 23013AL  26201.54111073 -.00000675  00000+0 -15000-4 0  9995
2 55365  43.0021 291.0439 0001747 277.6685  82.3969 15.27574915191783
STARLINK-5654           
1 55366U 23013AM  26201.47335903  .00002750  00000+0  10936-3 0  9994
2 55366  43.0038 258.5756 0001619 275.2061  84.8606 15.27596761192152
STARLINK-5635           
1 55367U 23013AN  26201.24781129  .00000675  00000+0  34067-4 0  9991
2 55367  43.0013 260.3090 0001439 270.7824  89.2863 15.27574276192112
STARLINK-5625           
1 55368U 23013AP  26201.21439516 -.00000211  00000+0  18663-5 0  9991
2 55368  43.0037 260.0712 0001759 285.8701  74.1957 15.27575375192111
STARLINK-5644           
1 55369U 23013AQ  26201.92958339  .00001322  00000+0  57571-4 0  9992
2 55369  43.0028 288.8002 0001677 275.4640  84.6020 15.27585296191847
STARLINK-5027           
1 55370U 23013AR  26201.93985267  .00000317  00000+0  21031-4 0  9990
2 55370  43.0023 288.8804 0001104 272.4612  87.6113 15.27579033191843
STARLINK-5590           
1 55371U 23013AS  26201.27185717  .00000036  00000+0  10847-4 0  9991
2 55371  43.0029 292.4629 0001291 268.3975  91.6729 15.27575335192669
STARLINK-5568           
1 55372U 23013AT  26201.51477439  .00001199  00000+0  53073-4 0  9993
2 55372  43.0021 288.2806 0001800 275.1064  84.9582 15.27582373191811
STARLINK-5581           
1 55373U 23013AU  26201.51812901  .00000219  00000+0  17507-4 0  9995
2 55373  43.0052 291.7156 0001800 271.4552  88.6093 15.27577091191778
STARLINK-5578           
1 55374U 23013AV  26201.51556001 -.00000313  00000+0 -18502-5 0  9996
2 55374  43.0034 291.7032 0001732 276.3575  83.7080 15.27573677191773
STARLINK-5588           
1 55375U 23013AW  26201.94756414 -.00000855  00000+0 -21551-4 0  9992
2 55375  43.0031 288.9286 0001105 281.1421  78.9306 15.27575564191840
STARLINK-5586           
1 55376U 23013AX  26201.50549508 -.00000044  00000+0  79120-5 0  9994
2 55376  43.0023 258.8063 0001435 272.7565  87.3122 15.27575694192151
STARLINK-5567           
1 55377U 23013AY  26201.57630673  .00001064  00000+0  48191-4 0  9991
2 55377  43.0027 287.8747 0001806 265.7008  94.3637 15.27575144191825
STARLINK-5572           
1 55378U 23013AZ  26201.26928780  .00000148  00000+0  14891-4 0  9999
2 55378  43.0024 292.4414 0001388 266.9183  93.1509 15.27573354191745
STARLINK-5569           
1 55379U 23013BA  26201.24294363 -.00000439  00000+0 -64312-5 0  9990
2 55379  43.0049 289.6768 0002134 273.6904  86.3703 15.27571595191777
STARLINK-5571           
1 55380U 23013BB  26201.91668981  .00002346  00000+0  10271-3 0  9997
2 55380  43.0000 274.9605 0002634 265.7537 304.0922 15.24820517  5676
STARLINK-5575           
1 55381U 23013BC  26201.57758603 -.00000590  00000+0 -11920-4 0  9995
2 55381  43.0027 287.8841 0001604 270.3844  89.6824 15.27570628191828
STARLINK-5576           
1 55382U 23013BD  26201.31216947  .00003066  00000+0  12081-3 0  9995
2 55382  43.0041 289.3394 0001145 286.5275  73.5451 15.27603081191785
STARLINK-5531           
1 55383U 23013BE  26201.49394740 -.00001399  00000+0 -41352-4 0  9996
2 55383  43.0017 258.7127 0001451 261.8600  98.2087 15.27567147192154
STARLINK-5537           
1 55384U 23013BF  26201.56601432  .00000188  00000+0  16368-4 0  9996
2 55384  43.0048 287.8076 0001871 281.3784  78.6857 15.27577155191821
STARLINK-5556           
1 55385U 23013BG  26201.57245062  .00001102  00000+0  49581-4 0  9991
2 55385  43.0044 287.8467 0001867 289.0698  70.9951 15.27582922191824
STARLINK-5555           
1 55386U 23013BH  26201.51604990 -.00000035  00000+0  82680-5 0  9998
2 55386  43.0039 288.2833 0001813 263.1912  96.8733 15.27574723191818
STARLINK-5085           
1 55392U 23014B   26201.89093761 -.00000124  00000+0 -26305-5 0  9997
2 55392  69.9995  68.4991 0002794 269.5935  90.4904 14.98330170192500
STARLINK-4786           
1 55393U 23014C   26201.91204099  .00000679  00000+0  64676-4 0  9994
2 55393  70.0002  88.4575 0002642 260.6939  99.3921 14.98326421192018
STARLINK-5274           
1 55395U 23014E   26201.90370112  .00000141  00000+0  19621-4 0  9999
2 55395  70.0002  88.4070 0002477 272.6638  87.4237 14.98330476192018
STARLINK-5283           
1 55396U 23014F   26201.90785540  .00000185  00000+0  23290-4 0  9990
2 55396  70.0002  88.4321 0002702 250.0502 110.0367 14.98331951192015
STARLINK-5224           
1 55397U 23014G   26201.93686529  .00000782  00000+0  73361-4 0  9998
2 55397  69.9997  68.6467 0003134 267.6069  92.4731 14.98327133192508
STARLINK-5275           
1 55398U 23014H   26201.92455618 -.00000297  00000+0 -17120-4 0  9995
2 55398  70.0000  88.4877 0002674 266.6661  93.4192 14.98330034192019
STARLINK-5276           
1 55399U 23014J   26201.98296710 -.00000146  00000+0 -44430-5 0  9996
2 55399  70.0001  88.2906 0002815 268.8047  91.2790 14.98329372192025
STARLINK-5632           
1 55400U 23014K   26201.93290260 -.00000076  00000+0  13880-5 0  9994
2 55400  70.0001  88.5127 0002637 264.3373  95.7485 14.98328999192014
STARLINK-5076           
1 55401U 23014L   26201.92037914 -.00000149  00000+0 -47367-5 0  9998
2 55401  70.0002  88.4739 0002808 265.5918  94.4920 14.98331807192014
STARLINK-5071           
1 55402U 23014M   26201.94125923  .00000622  00000+0  59921-4 0  9991
2 55402  69.9998  88.5467 0002881 269.5620  90.5209 14.98337737192015
STARLINK-5597           
1 55403U 23014N   26201.92872992 -.00000192  00000+0 -82921-5 0  9996
2 55403  70.0000  88.5033 0002547 266.1864  93.9004 14.98330859192012
STARLINK-5607           
1 55404U 23014P   26201.88283914 -.00000103  00000+0 -84602-6 0  9993
2 55404  69.9999  88.7453 0002515 269.8500  90.2371 14.98329218192000
STARLINK-5623           
1 55405U 23014Q   26201.93707582  .00000054  00000+0  12282-4 0  9998
2 55405  70.0000  88.5324 0002572 260.1547  99.9322 14.98328198192019
STARLINK-5630           
1 55406U 23014R   26201.88701306 -.00000022  00000+0  59742-5 0  9990
2 55406  70.0002  88.7608 0002715 269.9313  90.1535 14.98328695192006
STARLINK-5019           
1 55407U 23014S   26201.87866332  .00000156  00000+0  20885-4 0  9993
2 55407  70.0000  88.7302 0002755 262.7676  97.3170 14.98330485192007
STARLINK-5633           
1 55410U 23014V   26201.92478319 -.00000758  00000+0 -55764-4 0  9991
2 55410  70.0005 108.3577 0002496 265.5478  94.5396 14.98333612191522
STARLINK-5605           
1 55411U 23014W   26201.89537139  .00000800  00000+0  74809-4 0  9991
2 55411  70.0000  88.7909 0002920 266.8380  93.2445 14.98339569192008
STARLINK-5060           
1 55413U 23014Y   26201.92060242 -.00000786  00000+0 -58084-4 0  9995
2 55413  70.0001 108.3425 0002655 269.1782  90.9073 14.98335368191520
STARLINK-5620           
1 55414U 23014Z   26201.87053892 -.00000296  00000+0 -17021-4 0  9995
2 55414  70.0006 108.5707 0002778 267.8421  92.2420 14.98331237191513
STARLINK-5624           
1 55416U 23014AB  26201.94565393 -.00000820  00000+0 -60918-4 0  9995
2 55416  70.0006 108.4325 0002972 261.6790  98.4033 14.98325481191520
STARLINK-5030           
1 55418U 23014AD  26201.88723697 -.00000525  00000+0 -36199-4 0  9999
2 55418  70.0004 108.6296 0003289 266.0333  94.0450 14.98334550191514
STARLINK-5629           
1 55419U 23014AE  26201.94147196  .00000252  00000+0  28916-4 0  9994
2 55419  70.0005 108.4179 0002806 261.2687  98.8154 14.98331092191529
STARLINK-5604           
1 55420U 23014AF  26201.91180942 -.00002218  00000+0 -17813-3 0  9998
2 55420  69.9996  68.5809 0002901 272.3183  87.7644 14.98328855192506
STARLINK-5598           
1 55421U 23014AG  26201.88306271 -.00001346  00000+0 -10500-3 0  9997
2 55421  70.0008 108.6155 0002660 261.9139  98.1718 14.98330597191515
STARLINK-5006           
1 55422U 23014AH  26201.92895389 -.00000136  00000+0 -36204-5 0  9993
2 55422  70.0003 108.3690 0003064 256.8238 103.2579 14.98339021191529
STARLINK-5068           
1 55423U 23014AJ  26201.89975713  .00000080  00000+0  14457-4 0  9991
2 55423  70.0000 108.6719 0002605 269.7763  90.3097 14.98332799191513
STARLINK-5615           
1 55425U 23014AL  26201.89141189 -.00000152  00000+0 -49622-5 0  9990
2 55425  70.0003 108.6446 0002730 268.6555  91.4291 14.98329709191516
STARLINK-5638           
1 55426U 23014AM  26201.90810772 -.00000018  00000+0  62672-5 0  9994
2 55426  70.0002 108.7028 0002527 268.8861  91.2009 14.98332071191510
STARLINK-5064           
1 55428U 23014AP  26201.91645482 -.00000014  00000+0  65770-5 0  9999
2 55428  70.0000 108.7318 0002834 262.1446  97.9391 14.98329859191516
STARLINK-5645           
1 55429U 23014AQ  26201.90393163  .00000244  00000+0  28203-4 0  9998
2 55429  69.9999 108.6880 0002940 263.8817  96.2008 14.98331932191514
STARLINK-5642           
1 55430U 23014AR  26201.89580991  .00000625  00000+0  60201-4 0  9992
2 55430  70.0002 128.5165 0003054 269.8524  90.2285 14.98330415191021
STARLINK-5643           
1 55431U 23014AS  26201.91227376  .00000157  00000+0  20977-4 0  9997
2 55431  70.0008 108.7183 0002466 265.1699  94.9178 14.98328157191512
STARLINK-5637           
1 55432U 23014AT  26201.90432078  .00000100  00000+0  16185-4 0  9998
2 55432  70.0006 128.5475 0003216 272.7957  87.2834 14.98330756191028
STARLINK-5570           
1 55433U 23014AU  26201.89163058  .00000094  00000+0  15710-4 0  9991
2 55433  70.0002 128.5021 0002987 267.0752  93.0065 14.98332052191028
STARLINK-5621           
1 55434U 23014AV  26201.91250410 -.00000153  00000+0 -50227-5 0  9995
2 55434  70.0005 128.5757 0002746 270.1004  89.9840 14.98330830191023
